NORAD_CAT_ID,OBJECT_NAME,OBJECT_TYPE,EPOCH,MEAN_MOTION,ECCENTRICITY,INCLINATION,RA_OF_ASC_NODE,ARG_OF_PERICENTER,MEAN_ANOMALY,BSTAR,MEAN_MOTION_DOT,MEAN_MOTION_DDOT,TLE_LINE0,TLE_LINE1,TLE_LINE2,SEMIMAJOR_AXIS,PERIOD,APOGEE,PERIGEE,DECAYED
53578.0,STARLINK-4556,PAYLOAD,2023-01-13 17:22:29,15.08829559,0.0002137,53.2178,180.6421,37.0049,323.1091,-5.4583e-05,-1.157e-05,0.0,0 STARLINK-4556,1 53578U 22101BD  23013.72394813 -.00001157  00000-0 -54583-4 0  9995,2 53578  53.2178 180.6421 0002137  37.0049 323.1091 15.08829559 22694,6917.911999999999,95.438,541.256,538.299,0.0
53578.0,STARLINK-4556,PAYLOAD,2023-01-14 10:51:43,15.08830673,0.0002149,53.2176,177.3708,40.6025,319.5127,0.00024549,3.6200000000000006e-05,0.0,0 STARLINK-4556,1 53578U 22101BD  23014.45258147  .00003620  00000-0  24549-3 0  9998,2 53578  53.2176 177.3708 0002149  40.6025 319.5127 15.08830673 22801,6917.909000000001,95.438,541.261,538.2869999999999,0.0
53578.0,STARLINK-4556,PAYLOAD,2023-01-14 20:24:01,15.08842671,0.0002305,53.2169,175.5887,36.8238,323.2912,0.00027904,4.156e-05,0.0,0 STARLINK-4556,1 53578U 22101BD  23014.85001441  .00004156  00000-0  27904-3 0  9998,2 53578  53.2169 175.5887 0002305  36.8238 323.2912 15.08842671 22869,6917.871999999999,95.437,541.332,538.143,0.0
53578.0,STARLINK-4556,PAYLOAD,2023-01-15 10:42:30,15.08839818,0.0002444,53.2159,172.9112,46.9962,313.1235,0.00010188,1.333e-05,0.0,0 STARLINK-4556,1 53578U 22101BD  23015.44618379  .00001333  00000-0  10188-3 0  9998,2 53578  53.2159 172.9112 0002444  46.9962 313.1235 15.08839818 22955,6917.880999999999,95.438,541.437,538.055,0.0
53578.0,STARLINK-4556,PAYLOAD,2023-01-15 13:53:16,15.08842664,0.0002038,53.2174,172.3147,49.6527,310.4643,0.00012803,1.75e-05,0.0,0 STARLINK-4556,1 53578U 22101BD  23015.57865988  .00001750  00000-0  12803-3 0  9991,2 53578  53.2174 172.3147 0002038  49.6527 310.4643 15.08842664 22978,6917.871999999999,95.437,541.1469999999999,538.327,0.0
53578.0,STARLINK-4556,PAYLOAD,2023-01-15 17:04:02,15.08848331,0.0002279999999999,53.2171,171.7222,41.3033,318.8131,0.00010293,1.351e-05,0.0,0 STARLINK-4556,1 53578U 22101BD  23015.71113786  .00001351  00000-0  10293-3 0  9997,2 53578  53.2171 171.7222 0002280  41.3033 318.8131 15.08848331 22995,6917.855,95.437,541.297,538.143,0.0
53578.0,STARLINK-4556,PAYLOAD,2023-01-16 10:33:17,15.08848547,0.0002186999999999,53.2155,168.4504,46.636,313.4814,-8.1165e-05,-1.58e-05,0.0,0 STARLINK-4556,1 53578U 22101BD  23016.43978122 -.00001580  00000-0 -81165-4 0  9993,2 53578  53.2155 168.4504 0002187  46.6360 313.4814 15.08848547 23102,6917.854,95.437,541.232,538.206,0.0
53578.0,STARLINK-4556,PAYLOAD,2023-01-16 18:30:12,15.08855376,0.000226,53.2171,166.9652,48.9093,311.2094,-3.4079000000000004e-05,-8.31e-06,0.0,0 STARLINK-4556,1 53578U 22101BD  23016.77097284 -.00000831  00000-0 -34079-4 0  9991,2 53578  53.2171 166.9652 0002260  48.9093 311.2094 15.08855376 23156,6917.8330000000005,95.437,541.262,538.135,0.0
53578.0,STARLINK-4556,PAYLOAD,2023-01-16 20:05:35,15.08856686,0.000221,53.2172,166.6672,47.4944,312.6235,-2.2315e-05,-6.44e-06,0.0,0 STARLINK-4556,1 53578U 22101BD  23016.83721111 -.00000644  00000-0 -22315-4 0  9993,2 53578  53.2172 166.6672 0002210  47.4944 312.6235 15.08856686 23168,6917.829000000001,95.436,541.2230000000001,538.1659999999999,0.0
53578.0,STARLINK-4556,PAYLOAD,2023-01-17 02:27:08,15.08839268,0.0002345,53.2187,165.4749,49.7958,310.3239,-3.8459e-05,-9e-06,0.0,0 STARLINK-4556,1 53578U 22101BD  23017.10218223 -.00000900  00000-0 -38459-4 0  9990,2 53578  53.2187 165.4749 0002345  49.7958 310.3239 15.08839268 23206,6917.883000000001,95.438,541.37,538.125,0.0
53578.0,STARLINK-4556,PAYLOAD,2023-01-17 10:24:04,15.08832324,0.0002041,53.2175,163.9903,56.5441,303.5746,-0.00011089,-2.052e-05,0.0,0 STARLINK-4556,1 53578U 22101BD  23017.43338963 -.00002052  00000-0 -11089-3 0  9999,2 53578  53.2175 163.9903 0002041  56.5441 303.5746 15.08832324 23252,6917.904,95.438,541.181,538.357,0.0
53578.0,STARLINK-4556,PAYLOAD,2023-01-18 10:14:51,15.088409,0.0001988,53.2179,159.5308,59.8354,300.2835,1.7994e-06,-2.6e-06,0.0,0 STARLINK-4556,1 53578U 22101BD  23018.42698466 -.00000260  00000-0  17994-5 0  9997,2 53578  53.2179 159.5308 0001988  59.8354 300.2835 15.08840900 23403,6917.878000000001,95.437,541.118,538.367,0.0
53578.0,STARLINK-4556,PAYLOAD,2023-01-18 15:01:00,15.08845185,0.0002005,53.2202,158.6398,68.3232,291.7974,6.6369e-05,7.68e-06,0.0,0 STARLINK-4556,1 53578U 22101BD  23018.62569968  .00000768  00000-0  66369-4 0  9994,2 53578  53.2202 158.6398 0002005  68.3232 291.7974 15.08845185 23431,6917.865,95.437,541.117,538.3430000000001,0.0
53578.0,STARLINK-4556,PAYLOAD,2023-01-19 10:05:39,15.0882835,0.0002008,53.2191,155.0716,70.5582,289.5627,5.3068e-05,5.56e-06,0.0,0 STARLINK-4556,1 53578U 22101BD  23019.42059250  .00000556  00000-0  53068-4 0  9998,2 53578  53.2191 155.0716 0002008  70.5582 289.5627 15.08828350 23557,6917.916,95.438,541.17,538.3919999999999,0.0
53578.0,STARLINK-4556,PAYLOAD,2023-01-19 14:51:48,15.08836666,0.0001779,53.2185,154.1789,71.8526,288.266,7.986e-05,9.83e-06,0.0,0 STARLINK-4556,1 53578U 22101BD  23019.61930698  .00000983  00000-0  79860-4 0  9995,2 53578  53.2185 154.1789 0001779  71.8526 288.2660 15.08836666 23581,6917.891,95.438,540.986,538.525,0.0
53578.0,STARLINK-4556,PAYLOAD,2023-01-20 08:21:02,15.08842647,0.0001653,53.2182,150.9096,36.0502,324.0601,5.2379e-05,5.46e-06,0.0,0 STARLINK-4556,1 53578U 22101BD  23020.34794460  .00000546  00000-0  52379-4 0  9993,2 53578  53.2182 150.9096 0001653  36.0502 324.0601 15.08842647 23693,6917.871999999999,95.437,540.881,538.594,0.0
53578.0,STARLINK-4556,PAYLOAD,2023-01-20 16:17:56,15.08858045,0.0001729,53.2185,149.4208,68.4287,291.689,0.00012262,1.665e-05,0.0,0 STARLINK-4556,1 53578U 22101BD  23020.67913138  .00001665  00000-0  12262-3 0  9993,2 53578  53.2185 149.4208 0001729  68.4287 291.6890 15.08858045 23741,6917.825,95.436,540.886,538.494,0.0
53578.0,STARLINK-4556,PAYLOAD,2023-01-21 01:50:16,15.08844342,0.0001916999999999,53.22,147.6389,66.6424,293.4769,5.6268e-05,6.08e-06,0.0,0 STARLINK-4556,1 53578U 22101BD  23021.07658086  .00000608  00000-0  56268-4 0  9997,2 53578  53.2200 147.6389 0001917  66.6424 293.4769 15.08844342 23808,6917.866999999999,95.437,541.058,538.406,0.0
53578.0,STARLINK-4556,PAYLOAD,2023-01-21 08:11:49,15.08831676,0.0001641,53.2184,146.4489,74.5433,285.574,7.2435e-05,8.65e-06,0.0,0 STARLINK-4556,1 53578U 22101BD  23021.34154784  .00000865  00000-0  72435-4 0  9992,2 53578  53.2184 146.4489 0001641  74.5433 285.5740 15.08831676 23840,6917.906,95.438,540.906,538.636,0.0
53578.0,STARLINK-4556,PAYLOAD,2023-01-22 08:02:36,15.08840381,0.0001545,53.2172,141.9885,74.3266,285.7896,5.6998e-06,-1.97e-06,0.0,0 STARLINK-4556,1 53578U 22101BD  23022.33514460 -.00000197  00000-0  56998-5 0  9999,2 53578  53.2172 141.9885 0001545  74.3266 285.7896 15.08840381 23995,6917.879,95.438,540.813,538.675,0.0
53578.0,STARLINK-4556,PAYLOAD,2023-01-22 17:34:54,15.08855271,0.0001449,53.2182,140.2024,79.7491,280.3664,2.5508e-05,1.18e-06,0.0,0 STARLINK-4556,1 53578U 22101BD  23022.73257353  .00000118  00000-0  25508-4 0  9992,2 53578  53.2182 140.2024 0001449  79.7491 280.3664 15.08855271 24051,6917.834,95.437,540.701,538.696,0.0
53578.0,STARLINK-4556,PAYLOAD,2023-01-23 07:53:24,15.08828322,0.0001269,53.2174,137.5278,89.85700000000001,270.2567,2.3529e-05,8.7e-07,0.0,0 STARLINK-4556,1 53578U 22101BD  23023.32875049  .00000087  00000-0  23529-4 0  9992,2 53578  53.2174 137.5278 0001269  89.8570 270.2567 15.08828322 24149,6917.916,95.438,540.659,538.903,0.0
53578.0,STARLINK-4556,PAYLOAD,2023-01-23 14:14:56,15.08834832,0.0001498,53.2175,136.3393,87.4752,272.6412,0.00010133,1.325e-05,0.0,0 STARLINK-4556,1 53578U 22101BD  23023.59370586  .00001325  00000-0  10133-3 0  9999,2 53578  53.2175 136.3393 0001498  87.4752 272.6412 15.08834832 24187,6917.896,95.438,540.797,538.725,0.0
53578.0,STARLINK-4556,PAYLOAD,2023-01-25 12:21:08,15.0883039,0.0001307,53.2185,127.7152,116.1543,243.9584,3.7598e-05,3.1e-06,0.0,0 STARLINK-4556,1 53578U 22101BD  23025.51467726  .00000310  00000-0  37598-4 0  9994,2 53578  53.2185 127.7152 0001307 116.1543 243.9584 15.08830390 24470,6917.91,95.438,540.679,538.871,0.0
53578.0,STARLINK-4556,PAYLOAD,2023-01-25 13:56:31,15.08834447,0.0001094999999999,53.2179,127.4182,108.9506,251.1605,4.5394e-05,4.35e-06,0.0,0 STARLINK-4556,1 53578U 22101BD  23025.58091481  .00000435  00000-0  45394-4 0  9993,2 53578  53.2179 127.4182 0001095 108.9506 251.1605 15.08834447 24488,6917.897,95.438,540.52,539.005,0.0
53578.0,STARLINK-4556,PAYLOAD,2023-01-26 13:47:17,15.08848691,0.0001044999999999,53.2175,122.9575,103.2655,256.8454,0.00011588,1.557e-05,0.0,0 STARLINK-4556,1 53578U 22101BD  23026.57450645  .00001557  00000-0  11588-3 0  9997,2 53578  53.2175 122.9575 0001045 103.2655 256.8454 15.08848691 24635,6917.854,95.437,540.442,538.996,0.0
53578.0,STARLINK-4556,PAYLOAD,2023-01-27 12:02:42,15.08839361,0.0001014999999999,53.217,118.794,102.8049,257.3057,9.8097e-05,1.274e-05,0.0,0 STARLINK-4556,1 53578U 22101BD  23027.50187506  .00001274  00000-0  98097-4 0  9991,2 53578  53.2170 118.7940 0001015 102.8049 257.3057 15.08839361 24772,6917.882,95.438,540.45,539.045,0.0
53578.0,STARLINK-4556,PAYLOAD,2023-01-27 13:38:05,15.08841195,0.0001014,53.2171,118.4966,104.3884,255.7221,0.00011288,1.509e-05,0.0,0 STARLINK-4556,1 53578U 22101BD  23027.56811395  .00001509  00000-0  11288-3 0  9994,2 53578  53.2171 118.4966 0001014 104.3884 255.7221 15.08841195 24785,6917.877,95.437,540.443,539.04,0.0
53578.0,STARLINK-4556,PAYLOAD,2023-01-28 11:53:29,15.08839858,0.0001261,53.2166,114.3346,74.0747,286.0384,4.6335e-06,-2.14e-06,0.0,0 STARLINK-4556,1 53578U 22101BD  23028.49547990 -.00000214  00000-0  46335-5 0  9990,2 53578  53.2166 114.3346 0001261  74.0747 286.0384 15.08839858 24927,6917.881,95.438,540.618,538.873,0.0
